STARLINK-1273_new
1 15367C 20019H   21326.15710120  .00001078  00000-0  72219-4 0  3263
2 15367  53.0554   8.0468 0001353  56.4552  33.2568 15.06408170    14
STARLINK-1273_old
1 25367C 20019H   21325.12690325  .00003701  00000-0  24795-3 0  3252
2 25367  53.0553  12.6716 0001327  57.6314 202.1945 15.06393460    11
